HAWK-7B                 
1 56193U 23054R   26197.72005635  .00003006  00000+0  11392-3 0  9998
2 56193  97.2685  82.5808 0001152  13.1636 346.9634 15.27640355181534
HAWK-7C                 
1 56200U 23054Y   26197.65442800  .00003062  00000+0  11600-3 0  9992
2 56200  97.2660  83.2766 0000779 347.8558  12.2662 15.27642849181524
HAWK-8A                 
1 59443U 24066B   26197.76408399  .00001286  00000+0  12241-3 0  9993
2 59443  45.5957 123.7033 0003068 226.9094 133.1531 14.99291126124277
HAWK-8B                 
1 59445U 24066D   26197.49802456  .00000283  00000+0  41486-4 0  9997
2 59445  45.6178 127.0616 0003282 230.4028 129.6564 14.99293377124225
HAWK-9A                 
1 59446U 24066E   26197.85409667  .00000626  00000+0  69305-4 0  9996
2 59446  45.6095 123.8850 0002927 213.1385 146.9314 14.99218206124286
HAWK-9C                 
1 59448U 24066G   26197.85436359  .00000538  00000+0  62153-4 0  9992
2 59448  45.6065 122.9822 0002757 197.7619 162.3166 14.99216710124287
HAWK-8C                 
1 59449U 24066H   26197.83065211  .00000528  00000+0  61236-4 0  9996
2 59449  45.6074 124.3587 0002891 235.9960 124.0647 14.99292187124275
HAWK-9B                 
1 59450U 24066J   26197.85440204  .00000624  00000+0  69165-4 0  9995
2 59450  45.6120 124.8200 0003042 193.4972 166.5829 14.99213157124280
HAWK-10A                
1 60540U 24149CA  26197.65555588  .00000158  00000+0  18863-4 0  9990
2 60540  97.6888 273.0607 0002971 357.3444   2.7761 14.96593391104397
HAWK-10B                
1 60545U 24149CF  26197.65542009  .00000184  00000+0  21185-4 0  9999
2 60545  97.6806 272.3859 0005289   9.2082 350.9236 14.96592262104390
HAWK-10C                
1 60575U 24149DM  26197.65575913  .00000230  00000+0  25183-4 0  9996
2 60575  97.6724 271.6949 0002535 342.7387  17.3748 14.96590923104392
HAWK-11B                
1 62379U 24247C   26197.54089198  .00004246  00000+0  15055-3 0  9999
2 62379  45.0151 128.8015 0002747  30.2860 329.8183 15.30679840 87506
HAWK-11C                
1 62381U 24247E   26197.21413285  .00003989  00000+0  14210-3 0  9999
2 62381  45.0039 129.9225 0003724  14.9875 345.1119 15.30672158 87459
HAWK-11A                
1 62382U 24247F   26197.80158145  .00004288  00000+0  15194-3 0  9991
2 62382  44.9934 126.0275 0003139  17.3838 342.7153 15.30674736 87546
HAWK-12C                
1 64621U 25138A   26197.56764096  .00002157  00000+0  10786-3 0  9995
2 64621  97.4351 199.5167 0015187  47.0277 313.2227 15.18411900 58325
HAWK-12B                
1 64622U 25138B   26197.56781512  .00002171  00000+0  10861-3 0  9998
2 64622  97.4473 200.2124 0014033  43.2681 316.9653 15.18411355 58327
