{"fetched_at":"2026-07-17T06:38:16.838Z","source":"https://celestrak.org/NORAD/elements/gp.php?NAME=HAWK&FORMAT=JSON","constellation":"hawkeye-360","records":[{"OBJECT_NAME":"HAWK-7B","OBJECT_ID":"2023-054R","EPOCH":"2026-07-16T17:16:52.868640","CLASSIFICATION_TYPE":"U","MEAN_MOTION":15.27640355,"ECCENTRICITY":0.0001152,"INCLINATION":97.2685,"RA_OF_ASC_NODE":82.5808,"ARG_OF_PERICENTER":13.1636,"MEAN_ANOMALY":346.9634,"EPHEMERIS_TYPE":0,"NORAD_CAT_ID":56193,"ELEMENT_SET_NO":999,"REV_AT_EPOCH":18153,"BSTAR":0.00011392,"MEAN_MOTION_DOT":0.00003006,"MEAN_MOTION_DDOT":0},{"OBJECT_NAME":"HAWK-7C","OBJECT_ID":"2023-054Y","EPOCH":"2026-07-16T15:42:22.579200","CLASSIFICATION_TYPE":"U","MEAN_MOTION":15.27642849,"ECCENTRICITY":0.0000779,"INCLINATION":97.266,"RA_OF_ASC_NODE":83.2766,"ARG_OF_PERICENTER":347.8558,"MEAN_ANOMALY":12.2662,"EPHEMERIS_TYPE":0,"NORAD_CAT_ID":56200,"ELEMENT_SET_NO":999,"REV_AT_EPOCH":18152,"BSTAR":0.000116,"MEAN_MOTION_DOT":0.00003062,"MEAN_MOTION_DDOT":0},{"OBJECT_NAME":"HAWK-8A","OBJECT_ID":"2024-066B","EPOCH":"2026-07-16T18:20:16.856736","CLASSIFICATION_TYPE":"U","MEAN_MOTION":14.99291126,"ECCENTRICITY":0.0003068,"INCLINATION":45.5957,"RA_OF_ASC_NODE":123.7033,"ARG_OF_PERICENTER":226.9094,"MEAN_ANOMALY":133.1531,"EPHEMERIS_TYPE":0,"NORAD_CAT_ID":59443,"ELEMENT_SET_NO":999,"REV_AT_EPOCH":12427,"BSTAR":0.00012241,"MEAN_MOTION_DOT":0.00001286,"MEAN_MOTION_DDOT":0},{"OBJECT_NAME":"HAWK-8B","OBJECT_ID":"2024-066D","EPOCH":"2026-07-16T11:57:09.321984","CLASSIFICATION_TYPE":"U","MEAN_MOTION":14.99293377,"ECCENTRICITY":0.0003282,"INCLINATION":45.6178,"RA_OF_ASC_NODE":127.0616,"ARG_OF_PERICENTER":230.4028,"MEAN_ANOMALY":129.6564,"EPHEMERIS_TYPE":0,"NORAD_CAT_ID":59445,"ELEMENT_SET_NO":999,"REV_AT_EPOCH":12422,"BSTAR":0.000041486,"MEAN_MOTION_DOT":0.00000283,"MEAN_MOTION_DDOT":0},{"OBJECT_NAME":"HAWK-9A","OBJECT_ID":"2024-066E","EPOCH":"2026-07-16T20:29:53.952288","CLASSIFICATION_TYPE":"U","MEAN_MOTION":14.99218206,"ECCENTRICITY":0.0002927,"INCLINATION":45.6095,"RA_OF_ASC_NODE":123.885,"ARG_OF_PERICENTER":213.1385,"MEAN_ANOMALY":146.9314,"EPHEMERIS_TYPE":0,"NORAD_CAT_ID":59446,"ELEMENT_SET_NO":999,"REV_AT_EPOCH":12428,"BSTAR":0.000069305,"MEAN_MOTION_DOT":0.00000626,"MEAN_MOTION_DDOT":0},{"OBJECT_NAME":"HAWK-9C","OBJECT_ID":"2024-066G","EPOCH":"2026-07-16T20:30:17.014176","CLASSIFICATION_TYPE":"U","MEAN_MOTION":14.9921671,"ECCENTRICITY":0.0002757,"INCLINATION":45.6065,"RA_OF_ASC_NODE":122.9822,"ARG_OF_PERICENTER":197.7619,"MEAN_ANOMALY":162.3166,"EPHEMERIS_TYPE":0,"NORAD_CAT_ID":59448,"ELEMENT_SET_NO":999,"REV_AT_EPOCH":12428,"BSTAR":0.000062153,"MEAN_MOTION_DOT":0.00000538,"MEAN_MOTION_DDOT":0},{"OBJECT_NAME":"HAWK-8C","OBJECT_ID":"2024-066H","EPOCH":"2026-07-16T19:56:08.342304","CLASSIFICATION_TYPE":"U","MEAN_MOTION":14.99292187,"ECCENTRICITY":0.0002891,"INCLINATION":45.6074,"RA_OF_ASC_NODE":124.3587,"ARG_OF_PERICENTER":235.996,"MEAN_ANOMALY":124.0647,"EPHEMERIS_TYPE":0,"NORAD_CAT_ID":59449,"ELEMENT_SET_NO":999,"REV_AT_EPOCH":12427,"BSTAR":0.000061236,"MEAN_MOTION_DOT":0.00000528,"MEAN_MOTION_DDOT":0},{"OBJECT_NAME":"HAWK-9B","OBJECT_ID":"2024-066J","EPOCH":"2026-07-16T20:30:20.336256","CLASSIFICATION_TYPE":"U","MEAN_MOTION":14.99213157,"ECCENTRICITY":0.0003042,"INCLINATION":45.612,"RA_OF_ASC_NODE":124.82,"ARG_OF_PERICENTER":193.4972,"MEAN_ANOMALY":166.5829,"EPHEMERIS_TYPE":0,"NORAD_CAT_ID":59450,"ELEMENT_SET_NO":999,"REV_AT_EPOCH":12428,"BSTAR":0.000069165,"MEAN_MOTION_DOT":0.00000624,"MEAN_MOTION_DDOT":0},{"OBJECT_NAME":"HAWK-10A","OBJECT_ID":"2024-149CA","EPOCH":"2026-07-16T15:44:00.028032","CLASSIFICATION_TYPE":"U","MEAN_MOTION":14.96593391,"ECCENTRICITY":0.0002971,"INCLINATION":97.6888,"RA_OF_ASC_NODE":273.0607,"ARG_OF_PERICENTER":357.3444,"MEAN_ANOMALY":2.7761,"EPHEMERIS_TYPE":0,"NORAD_CAT_ID":60540,"ELEMENT_SET_NO":999,"REV_AT_EPOCH":10439,"BSTAR":0.000018863,"MEAN_MOTION_DOT":0.00000158,"MEAN_MOTION_DDOT":0},{"OBJECT_NAME":"HAWK-10B","OBJECT_ID":"2024-149CF","EPOCH":"2026-07-16T15:43:48.295776","CLASSIFICATION_TYPE":"U","MEAN_MOTION":14.96592262,"ECCENTRICITY":0.0005289,"INCLINATION":97.6806,"RA_OF_ASC_NODE":272.3859,"ARG_OF_PERICENTER":9.2082,"MEAN_ANOMALY":350.9236,"EPHEMERIS_TYPE":0,"NORAD_CAT_ID":60545,"ELEMENT_SET_NO":999,"REV_AT_EPOCH":10439,"BSTAR":0.000021185,"MEAN_MOTION_DOT":0.00000184,"MEAN_MOTION_DDOT":0},{"OBJECT_NAME":"HAWK-10C","OBJECT_ID":"2024-149DM","EPOCH":"2026-07-16T15:44:17.588832","CLASSIFICATION_TYPE":"U","MEAN_MOTION":14.96590923,"ECCENTRICITY":0.0002535,"INCLINATION":97.6724,"RA_OF_ASC_NODE":271.6949,"ARG_OF_PERICENTER":342.7387,"MEAN_ANOMALY":17.3748,"EPHEMERIS_TYPE":0,"NORAD_CAT_ID":60575,"ELEMENT_SET_NO":999,"REV_AT_EPOCH":10439,"BSTAR":0.000025183,"MEAN_MOTION_DOT":0.0000023,"MEAN_MOTION_DDOT":0},{"OBJECT_NAME":"HAWK-11B","OBJECT_ID":"2024-247C","EPOCH":"2026-07-16T12:58:53.067072","CLASSIFICATION_TYPE":"U","MEAN_MOTION":15.3067984,"ECCENTRICITY":0.0002747,"INCLINATION":45.0151,"RA_OF_ASC_NODE":128.8015,"ARG_OF_PERICENTER":30.286,"MEAN_ANOMALY":329.8183,"EPHEMERIS_TYPE":0,"NORAD_CAT_ID":62379,"ELEMENT_SET_NO":999,"REV_AT_EPOCH":8750,"BSTAR":0.00015055,"MEAN_MOTION_DOT":0.00004246,"MEAN_MOTION_DDOT":0},{"OBJECT_NAME":"HAWK-11C","OBJECT_ID":"2024-247E","EPOCH":"2026-07-16T05:08:21.078240","CLASSIFICATION_TYPE":"U","MEAN_MOTION":15.30672158,"ECCENTRICITY":0.0003724,"INCLINATION":45.0039,"RA_OF_ASC_NODE":129.9225,"ARG_OF_PERICENTER":14.9875,"MEAN_ANOMALY":345.1119,"EPHEMERIS_TYPE":0,"NORAD_CAT_ID":62381,"ELEMENT_SET_NO":999,"REV_AT_EPOCH":8745,"BSTAR":0.0001421,"MEAN_MOTION_DOT":0.00003989,"MEAN_MOTION_DDOT":0},{"OBJECT_NAME":"HAWK-11A","OBJECT_ID":"2024-247F","EPOCH":"2026-07-16T19:14:16.637280","CLASSIFICATION_TYPE":"U","MEAN_MOTION":15.30674736,"ECCENTRICITY":0.0003139,"INCLINATION":44.9934,"RA_OF_ASC_NODE":126.0275,"ARG_OF_PERICENTER":17.3838,"MEAN_ANOMALY":342.7153,"EPHEMERIS_TYPE":0,"NORAD_CAT_ID":62382,"ELEMENT_SET_NO":999,"REV_AT_EPOCH":8754,"BSTAR":0.00015194,"MEAN_MOTION_DOT":0.00004288,"MEAN_MOTION_DDOT":0},{"OBJECT_NAME":"HAWK-12C","OBJECT_ID":"2025-138A","EPOCH":"2026-07-16T13:37:24.178944","CLASSIFICATION_TYPE":"U","MEAN_MOTION":15.184119,"ECCENTRICITY":0.0015187,"INCLINATION":97.4351,"RA_OF_ASC_NODE":199.5167,"ARG_OF_PERICENTER":47.0277,"MEAN_ANOMALY":313.2227,"EPHEMERIS_TYPE":0,"NORAD_CAT_ID":64621,"ELEMENT_SET_NO":999,"REV_AT_EPOCH":5832,"BSTAR":0.00010786,"MEAN_MOTION_DOT":0.00002157,"MEAN_MOTION_DDOT":0},{"OBJECT_NAME":"HAWK-12B","OBJECT_ID":"2025-138B","EPOCH":"2026-07-16T13:37:39.226368","CLASSIFICATION_TYPE":"U","MEAN_MOTION":15.18411355,"ECCENTRICITY":0.0014033,"INCLINATION":97.4473,"RA_OF_ASC_NODE":200.2124,"ARG_OF_PERICENTER":43.2681,"MEAN_ANOMALY":316.9653,"EPHEMERIS_TYPE":0,"NORAD_CAT_ID":64622,"ELEMENT_SET_NO":999,"REV_AT_EPOCH":5832,"BSTAR":0.00010861,"MEAN_MOTION_DOT":0.00002171,"MEAN_MOTION_DDOT":0}]}
